#aV2007  7 25  0  0   .00000000      96 DD+AD WGS84 FIT  NGA
## 1437 259200.00000000   900.00000000 54306  .0000000000000
+   31     1  2  3  4  5  6  7  8  9 10 11 12 13 14 16 17 18
+         19 20 21 22 23 24 25 26 27 28 29 30 31 32  0  0  0
+          0  0  0  0  0  0  0  0  0  0  0  0  0  0  0  0  0
+          0  0  0  0  0  0  0  0  0  0  0  0  0  0  0  0  0
+          0  0  0  0  0  0  0  0  0  0  0  0  0  0  0  0  0
++         0  0  0  0  0  0  0  0  0  0  0  0  0  0  0  0  0
++         0  0  0  0  0  0  0  0  0  0  0  0  0  0  0  0  0
++         0  0  0  0  0  0  0  0  0  0  0  0  0  0  0  0  0
++         0  0  0  0  0  0  0  0  0  0  0  0  0  0  0  0  0
++         0  0  0  0  0  0  0  0  0  0  0  0  0  0  0  0  0
%c cc cc ccc ccc cccc cccc cccc cccc ccccc ccccc ccccc ccccc
%c cc cc ccc ccc cccc cccc cccc cccc ccccc ccccc ccccc ccccc
%f  0.0000000  0.000000000  0.00000000000  0.000000000000000
%f  0.0000000  0.000000000  0.00000000000  0.000000000000000
%i    0    0    0    0      0      0      0      0         0
%i    0    0    0    0      0      0      0      0         0
/*      NGA, ST. LOUIS,MO.                                  
/*   EPHEMERIS COMPUTED FROM  3 DAYS OF DATA                
/* CCCCCCCCCCCCCCCCCCCCCCCCCCCCCCCCCCCCCCCCCCCCCCCCCCCCCCCCC
/* CCCCCCCCCCCCCCCCCCCCCCCCCCCCCCCCCCCCCCCCCCCCCCCCCCCCCCCCC
*  2007  7 25  3 15   .00000000                                                 
P  1  16978.928579  15075.446726  14041.022388    141.923469                    
V  1 -16988.979210  -3999.218486  25139.916615       .024269                    
P  2 -13382.504411 -20868.722759 -10129.198250    124.056688                    
V  2   -805.202627 -12754.239926  27595.922930       .028058                    
P  3  22692.142840  10764.761203  -9357.297054     91.494611                    
V  3 -11906.314076   1344.628522 -27626.624411       .055297                    
P  4  -6014.262628 -25653.907288    781.071846      5.179836                    
V  4   3785.932619    144.401017  31615.780121      -.017793                    
P  5 -20434.713068  13831.757317   9378.049566    217.598205                    
V  5   5376.240958 -11580.321601  28211.194256       .431317                    
P  6 -17656.302628   9240.447792 -17386.308821    239.465362                    
V  6 -21509.410610  -7031.689576  17873.434538       .046855                    
P  7 -14997.949833  11041.608429 -18607.559439    186.520912                    
V  7 -23615.165539  -6498.091187  14850.340043      -.207847                    
P  8   1534.671107 -24346.241054 -10045.413739   -116.263009                    
V  8   4997.186883  11916.536991 -28871.806222      -.015202                    
P  9 -15668.403781  -2083.165074  20774.710339     80.152509                    
V  9  -7639.164536 -26675.139891  -7998.782624       .016822                    
P 10 -12507.717986  -8815.511581 -21847.419503    105.257312                    
V 10  19702.725819 -19061.072575  -3297.146859       .005223                    
P 11  17189.649772  -1485.661235  20128.977274     21.084881                    
V 11  10163.035383  24024.724328  -6566.914586       .006807                    
P 12 -21289.849341   7668.270750  13953.391516    -50.484590                    
V 12  10844.128407 -13991.825896  24476.761908      -.011769                    
P 13  16873.315331  -7807.900948 -19061.939171    192.726550                    
V 13  22611.602643   7822.401379  16934.341471       .031612                    
P 14   3213.188509  15570.573120  21374.691096     31.762482                    
V 14 -25938.966524  -6964.555585   8920.620648       .020506                    
P 16   7395.315331  13611.078970 -21478.486029    164.917915                    
V 16 -20005.133553  18832.779278   5182.820599       .025629                    
P 17   -794.029183 -15761.939475  21398.260617     60.074813                    
V 17  26283.333132   6671.284427   5763.022385      -.011655                    
P 18 -16701.577841  19928.242283   4545.918751   -243.161449                    
V 18  -6384.105422   1435.836488 -31090.053340       .013715                    
P 19  25620.427309   6957.516221   2207.088333     53.273541                    
V 19   1641.219153   3509.129422 -31427.137048       .028675                    
P 20  21480.733859 -10492.224228  11437.209347    -27.210271                    
V 20  -8304.014916  12434.163244  26787.628868      -.004911                    
P 21  -8013.610186  18736.556781 -16579.774313     78.679502                    
V 21  -7548.113874 -20418.465281 -19852.858114       .000260                    
P 22  -6772.949455  20853.264760  15117.099411    192.002699                    
V 22 -15502.548613  11154.792446 -22605.293749       .013425                    
P 23  24023.819071  -1774.730882 -11512.296500    184.846226                    
V 23  13414.915933   5579.460298  27116.529128       .033943                    
P 24 -13724.102451   7623.635980 -21252.825156     17.691402                    
V 24  -6201.761206 -26739.856067  -5251.313186       .028364                    
P 25  10330.852839 -13039.546812 -20375.279853    380.894123                    
V 25  10242.736734  24636.722265 -10241.258885       .159186                    
P 26 -25138.971630  -9279.260167  -2390.806094   -326.607300                    
V 26   2699.423768   -538.767078 -31888.063854      -.223049                    
P 27   5675.448868 -19236.068936 -16651.349558    124.723028                    
V 27   9122.103983  20640.159730 -20189.609592       .023849                    
P 28   9519.794448 -21338.398740  12634.646490     -3.630921                    
V 28  12954.291774  -9080.049717 -26131.283911      -.006729                    
P 29 -23849.538196 -10428.197989  -6022.560446      4.686313                    
V 29   7950.224037    486.652509 -30910.240887       .002731                    
P 30 -19481.390426  17586.059864   3355.807568     40.478747                    
V 30    701.272435  -5701.564961  31131.120346       .010618                    
P 31   7985.857537  25238.796222  -1417.874221     14.792213                    
V 31  -2163.561172   2710.537481  31791.665508      -.010722                    
P 32   4769.873154  15297.238123  21671.989102    527.743670                    
V 32 -20331.450451  16785.281847  -7411.333667       .199122                    
EOF
